{
"type": "FeatureCollection",
"features": [
{
  "type": "Feature",
  "id": "node/8842630422",
  "properties": {
    "access": "yes",
    "defibrillator:location": "Vadozner Huus, Rathausplatz, Gemeindepolizei",
    "description": "An der Aussenwand bei der Gemeindepolizei Rathausplatz",
    "emergency": "defibrillator",
    "emergency:phone": "144",
    "indoor": "no",
    "opening_hours": "24/7",
    "operator": "Gemeinde Vaduz",
    "phone": "+423 793 78 02",
    "id": "node/8842630422"
  },
  "geometry": {
    "type": "Point",
    "coordinates": [
      9.5223373,
      47.1404741
    ]
  }
},
{
  "type": "Feature",
  "id": "node/9004556001",
  "properties": {
    "access": "yes",
    "defibrillator:location": "Schulhaus Obergufer, Turnhalle und Schuleingang",
    "description": "24h verfügbar Eingangsbereich Turnhalle aussen",
    "emergency": "defibrillator",
    "emergency:phone": "144",
    "indoor": "no",
    "opening_hours": "24/7",
    "operator": "Gemeinde Triesenberg",
    "phone": "+423 792 26 75",
    "id": "node/9004556001"
  },
  "geometry": {
    "type": "Point",
    "coordinates": [
      9.5474035,
      47.1169584
    ]
  }
},
{
  "type": "Feature",
  "id": "node/9004556004",
  "properties": {
    "access": "yes",
    "defibrillator:location": "Dorfzentrum, Eingang Gemeindeverwaltung Warteraum",
    "description": "Öffentlich zugänglich und im Wandkasten verbaut unterhalb Infobildschirm und neben WC Eingang",
    "emergency": "defibrillator",
    "emergency:phone": "144",
    "indoor": "no",
    "opening_hours": "24/7",
    "operator": "Gemeinde Triesenberg",
    "phone": "+423 792 26 69",
    "id": "node/9004556004"
  },
  "geometry": {
    "type": "Point",
    "coordinates": [
      9.5432273,
      47.1179677
    ]
  }
},
{
  "type": "Feature",
  "id": "node/9004556005",
  "properties": {
    "access": "yes",
    "defibrillator:location": "Sportplatz Leitawis Sanitätsraum Tribüne Hauptplatz",
    "emergency": "defibrillator",
    "emergency:phone": "144",
    "indoor": "yes",
    "opening_hours": "24/7",
    "operator": "Gemeinde Triesenberg",
    "phone": "+423 792 26 68",
    "id": "node/9004556005"
  },
  "geometry": {
    "type": "Point",
    "coordinates": [
      9.5405088,
      47.1147438
    ]
  }
},
{
  "type": "Feature",
  "id": "node/9004556006",
  "properties": {
    "access": "yes",
    "defibrillator:location": "Pfarrkirche Balzers, bei der Toilettenanlage aussen",
    "emergency": "defibrillator",
    "emergency:phone": "144",
    "indoor": "no",
    "opening_hours": "24/7",
    "operator": "Gemeinde Balzers",
    "phone": "+41 79 698 93 11",
    "id": "node/9004556006"
  },
  "geometry": {
    "type": "Point",
    "coordinates": [
      9.5019813,
      47.0654426
    ]
  }
},
{
  "type": "Feature",
  "id": "node/9004556008",
  "properties": {
    "access": "yes",
    "defibrillator:location": "Gemeindesaal Balzers",
    "description": "Haupteingang",
    "emergency": "defibrillator",
    "emergency:phone": "144",
    "indoor": "no",
    "opening_hours": "24/7",
    "operator": "Gemeinde Balzers",
    "phone": "+41 79 697 33 26",
    "id": "node/9004556008"
  },
  "geometry": {
    "type": "Point",
    "coordinates": [
      9.5024067,
      47.0665958
    ]
  }
},
{
  "type": "Feature",
  "id": "node/9004556011",
  "properties": {
    "access": "yes",
    "defibrillator:location": "Fussballplatz Hauptgebäude",
    "description": "Nebeneingang Hauptgebäude FC, direkt neben der Strasse",
    "emergency": "defibrillator",
    "emergency:phone": "144",
    "indoor": "no",
    "opening_hours": "24/7",
    "operator": "Gemeinde Balzers",
    "phone": "+41 79 639 33 13",
    "id": "node/9004556011"
  },
  "geometry": {
    "type": "Point",
    "coordinates": [
      9.4954404,
      47.0732475
    ]
  }
},
{
  "type": "Feature",
  "id": "node/9004557421",
  "properties": {
    "access": "yes",
    "defibrillator:location": "Freizeitanlage Kiosk Unterstand",
    "emergency": "defibrillator",
    "emergency:phone": "144",
    "indoor": "no",
    "opening_hours": "24/7",
    "operator": "Gemeinde Triesen GePo",
    "phone": "+423 236 36 42",
    "ref": "Sportplatz Triesen",
    "id": "node/9004557421"
  },
  "geometry": {
    "type": "Point",
    "coordinates": [
      9.5202327,
      47.110701
    ]
  }
},
{
  "type": "Feature",
  "id": "node/9004557425",
  "properties": {
    "access": "yes",
    "defibrillator:location": "Landespolizei Haupteingang Anmeldung",
    "emergency": "defibrillator",
    "emergency:phone": "144",
    "indoor": "yes",
    "opening_hours": "24/7",
    "operator": "Landespolizei",
    "phone": "+423 236 79 87",
    "id": "node/9004557425"
  },
  "geometry": {
    "type": "Point",
    "coordinates": [
      9.5221424,
      47.1260601
    ]
  }
},
{
  "type": "Feature",
  "id": "node/9004557427",
  "properties": {
    "access": "yes",
    "defibrillator:location": "Bauverwaltung Vaduz / LRK Hauptsitz",
    "description": "Am Garagentor bei der Bauverwaltung",
    "emergency": "defibrillator",
    "emergency:phone": "144",
    "indoor": "no",
    "opening_hours": "24/7",
    "operator": "Beat Lohner",
    "phone": "+423 789 78 50",
    "id": "node/9004557427"
  },
  "geometry": {
    "type": "Point",
    "coordinates": [
      9.5129807,
      47.1328541
    ]
  }
},
{
  "type": "Feature",
  "id": "node/9004557436",
  "properties": {
    "access": "yes",
    "defibrillator:location": "Information Tourismusbüro Liechtenstein Center",
    "description": "Im Eingangsbereich neben Haupttüre 24/7 zugänglich",
    "emergency": "defibrillator",
    "emergency:phone": "144",
    "indoor": "yes",
    "opening_hours": "24/7",
    "operator": "Auskunft LieMarketing",
    "phone": "+423 239 63 00",
    "ref": "Liechtenstein Center",
    "id": "node/9004557436"
  },
  "geometry": {
    "type": "Point",
    "coordinates": [
      9.5226547,
      47.1385276
    ]
  }
},
{
  "type": "Feature",
  "id": "node/9004557445",
  "properties": {
    "access": "yes",
    "defibrillator:location": "Aussenwand des Uni Restaurants Aufgang",
    "emergency": "defibrillator",
    "emergency:phone": "144",
    "indoor": "no",
    "opening_hours": "24/7",
    "operator": "Gemeinde Vaduz",
    "phone": "+423 793 78 02",
    "id": "node/9004557445"
  },
  "geometry": {
    "type": "Point",
    "coordinates": [
      9.5160362,
      47.1494547
    ]
  }
},
{
  "type": "Feature",
  "id": "node/9004557449",
  "properties": {
    "access": "yes",
    "defibrillator:location": "Tennisanlage Dux, Öffentliches WC",
    "emergency": "defibrillator",
    "emergency:phone": "144",
    "indoor": "yes",
    "opening_hours": "24/7",
    "operator": "Gemeinde Schaan Alex Steiger, SIBE",
    "phone": "+423 237 72 44",
    "id": "node/9004557449"
  },
  "geometry": {
    "type": "Point",
    "coordinates": [
      9.5274881,
      47.1674173
    ]
  }
},
{
  "type": "Feature",
  "id": "node/9004557451",
  "properties": {
    "access": "yes",
    "defibrillator:location": "Hallenbad / Turnhalle Eingang Schulhaus Resch",
    "emergency": "defibrillator",
    "emergency:phone": "144",
    "indoor": "no",
    "opening_hours": "24/7",
    "operator": "Gemeinde Schaan Alex Steiger, SIBE",
    "phone": "+423 237 72 44",
    "id": "node/9004557451"
  },
  "geometry": {
    "type": "Point",
    "coordinates": [
      9.514968,
      47.1662426
    ]
  }
},
{
  "type": "Feature",
  "id": "node/9004557455",
  "properties": {
    "access": "yes",
    "defibrillator:location": "SAL, öffentlicher Durchgang beim WC",
    "emergency": "defibrillator",
    "emergency:phone": "144",
    "indoor": "yes",
    "opening_hours": "24/7",
    "operator": "Gemeinde Schaan Alex Steiger, SIBE",
    "phone": "+423 237 72 44",
    "id": "node/9004557455"
  },
  "geometry": {
    "type": "Point",
    "coordinates": [
      9.5098203,
      47.1665019
    ]
  }
},
{
  "type": "Feature",
  "id": "node/9004557460",
  "properties": {
    "access": "yes",
    "defibrillator:location": "Werkhofstrasse 7, Vis a Vis des Werkhofs und Altstoffsammelstelle",
    "description": "Werkhofstrasse 7",
    "emergency": "defibrillator",
    "emergency:phone": "144",
    "indoor": "no",
    "opening_hours": "24/7",
    "operator": "Gemeinde Schaan, Alex Steiger, SIBE",
    "phone": "+423 237 72 44",
    "id": "node/9004557460"
  },
  "geometry": {
    "type": "Point",
    "coordinates": [
      9.5121324,
      47.1707962
    ]
  }
},
{
  "type": "Feature",
  "id": "node/9004557462",
  "properties": {
    "access": "yes",
    "defibrillator:location": "Liecht. Kraftwerke, LKW",
    "emergency": "defibrillator",
    "emergency:phone": "144",
    "indoor": "no",
    "opening_hours": "24/7",
    "operator": "LKW, Liecht. Kraftwerke",
    "phone": "+423 236 01 11",
    "id": "node/9004557462"
  },
  "geometry": {
    "type": "Point",
    "coordinates": [
      9.5116658,
      47.1748969
    ]
  }
},
{
  "type": "Feature",
  "id": "node/9004557474",
  "properties": {
    "access": "yes",
    "defibrillator:location": "Sportpark Eschen-Mauren",
    "description": "Nebeneingang zu den Kabinen EG",
    "emergency": "defibrillator",
    "emergency:phone": "144",
    "indoor": "no",
    "opening_hours": "24/7",
    "operator": "Gemeinde Eschen",
    "phone": "+423 794 90 20",
    "id": "node/9004557474"
  },
  "geometry": {
    "type": "Point",
    "coordinates": [
      9.5383885,
      47.2058305
    ]
  }
},
{
  "type": "Feature",
  "id": "node/9004557475",
  "properties": {
    "access": "yes",
    "defibrillator:location": "Feuerwehrdepot",
    "description": "Bei den Garagentoren",
    "emergency": "defibrillator",
    "emergency:phone": "144",
    "opening_hours": "24/7",
    "operator": "Gemeinde Mauren",
    "phone": "+423 792 22 41",
    "id": "node/9004557475"
  },
  "geometry": {
    "type": "Point",
    "coordinates": [
      9.5471501,
      47.2098016
    ]
  }
},
{
  "type": "Feature",
  "id": "node/9004557476",
  "properties": {
    "access": "yes",
    "defibrillator:location": "Schaanwald Parkplatz Bancomat Zuschg",
    "description": "Neben Bancomat, Aussenwand",
    "emergency": "defibrillator",
    "emergency:phone": "144",
    "indoor": "no",
    "opening_hours": "24/7",
    "operator": "Gemeinde Mauren",
    "phone": "+423 792 22 47",
    "id": "node/9004557476"
  },
  "geometry": {
    "type": "Point",
    "coordinates": [
      9.56206,
      47.2109182
    ]
  }
},
{
  "type": "Feature",
  "id": "node/9004557477",
  "properties": {
    "access": "yes",
    "defibrillator:location": "Schule, Eingang bei Turnhalle",
    "emergency": "defibrillator",
    "emergency:phone": "144",
    "opening_hours": "24/7",
    "operator": "Gemeinde Mauren",
    "phone": "+423 792 22 41",
    "id": "node/9004557477"
  },
  "geometry": {
    "type": "Point",
    "coordinates": [
      9.5638239,
      47.2108577
    ]
  }
},
{
  "type": "Feature",
  "id": "node/9004557479",
  "properties": {
    "access": "yes",
    "defibrillator:location": "Öffentliche Toilette / WC",
    "emergency": "defibrillator",
    "emergency:phone": "144",
    "indoor": "no",
    "opening_hours": "24/7",
    "operator": "Gemeinde Mauren",
    "phone": "+423 792 22 59",
    "id": "node/9004557479"
  },
  "geometry": {
    "type": "Point",
    "coordinates": [
      9.5436196,
      47.2206587
    ]
  }
},
{
  "type": "Feature",
  "id": "node/9004557482",
  "properties": {
    "access": "yes",
    "defibrillator:location": "Verwaltungseingang EG",
    "description": "Bei Eingang Gemeindeverwaltung",
    "emergency": "defibrillator",
    "emergency:phone": "144",
    "indoor": "no",
    "opening_hours": "24/7",
    "operator": "Gemeinde Schellenberg",
    "phone": "+423 399 20 42",
    "id": "node/9004557482"
  },
  "geometry": {
    "type": "Point",
    "coordinates": [
      9.5466444,
      47.2323843
    ]
  }
},
{
  "type": "Feature",
  "id": "node/9004557487",
  "properties": {
    "access": "yes",
    "defibrillator:location": "Tennishaus",
    "description": "Erdgeschoss Aussen unter der Terrasse",
    "emergency": "defibrillator",
    "emergency:phone": "144",
    "indoor": "no",
    "opening_hours": "24/7",
    "operator": "Gemeinde Ruggell",
    "phone": "+423 377 49 20",
    "id": "node/9004557487"
  },
  "geometry": {
    "type": "Point",
    "coordinates": [
      9.5245173,
      47.2452964
    ]
  }
},
{
  "type": "Feature",
  "id": "node/9004557488",
  "properties": {
    "access": "yes",
    "defibrillator:location": "Freizeitpark und Fussballplatz Widau",
    "emergency": "defibrillator",
    "emergency:phone": "144",
    "indoor": "no",
    "opening_hours": "24/7",
    "operator": "Gemeinde Ruggell",
    "phone": "+423 377 49 20",
    "id": "node/9004557488"
  },
  "geometry": {
    "type": "Point",
    "coordinates": [
      9.5279824,
      47.2470901
    ]
  }
},
{
  "type": "Feature",
  "id": "node/9088806217",
  "properties": {
    "access": "yes",
    "defibrillator:location": "Gemeindehaus Gamprin, gegenüber Bankomat",
    "emergency": "defibrillator",
    "emergency:phone": "144",
    "indoor": "no",
    "opening_hours": "24/7",
    "operator": "Gemeinde Gamprin-Bendern",
    "phone": "+423 375 91 00",
    "id": "node/9088806217"
  },
  "geometry": {
    "type": "Point",
    "coordinates": [
      9.5106176,
      47.2184097
    ]
  }
},
{
  "type": "Feature",
  "id": "node/9088810017",
  "properties": {
    "access": "yes",
    "defibrillator:location": "Gemeindeschulen Gamprin, gegenüber Eingang Aula",
    "emergency": "defibrillator",
    "emergency:phone": "144",
    "indoor": "no",
    "opening_hours": "24/7",
    "operator": "Gemeinde Gamprin-Bendern",
    "phone": "+423 375 91 00",
    "id": "node/9088810017"
  },
  "geometry": {
    "type": "Point",
    "coordinates": [
      9.5109559,
      47.2197109
    ]
  }
},
{
  "type": "Feature",
  "id": "node/9088810018",
  "properties": {
    "access": "yes",
    "defibrillator:location": "Post Bendern",
    "emergency": "defibrillator",
    "emergency:phone": "144",
    "indoor": "no",
    "opening_hours": "24/7",
    "operator": "Gemeinde Gamprin-Bendern",
    "phone": "+423 375 91 00",
    "id": "node/9088810018"
  },
  "geometry": {
    "type": "Point",
    "coordinates": [
      9.5029242,
      47.2105658
    ]
  }
},
{
  "type": "Feature",
  "id": "node/9088812017",
  "properties": {
    "access": "yes",
    "defibrillator:location": "Freizeitanlage Grossabünt",
    "emergency": "defibrillator",
    "emergency:phone": "144",
    "indoor": "no",
    "opening_hours": "24/7",
    "operator": "Gemeinde Gamprin-Bendern",
    "phone": "+423 375 91 00",
    "id": "node/9088812017"
  },
  "geometry": {
    "type": "Point",
    "coordinates": [
      9.5057481,
      47.2177819
    ]
  }
},
{
  "type": "Feature",
  "id": "node/9088820717",
  "properties": {
    "access": "yes",
    "defibrillator:location": "Bongert / Parkplatz Kirche",
    "emergency": "defibrillator",
    "emergency:phone": "144",
    "indoor": "no",
    "opening_hours": "24/7",
    "operator": "Gemeinde Gamprin-Bendern",
    "phone": "+423 375 91 00",
    "id": "node/9088820717"
  },
  "geometry": {
    "type": "Point",
    "coordinates": [
      9.5046536,
      47.2120567
    ]
  }
},
{
  "type": "Feature",
  "id": "node/9352008617",
  "properties": {
    "access": "yes",
    "defibrillator:location": "Schulzentrum Planken",
    "description": "Hinter dem Gebäude, öffentlich zugänglich bei den Toiletten",
    "emergency": "defibrillator",
    "emergency:phone": "144",
    "indoor": "no",
    "opening_hours": "24/7",
    "operator": "Gemeinde Planken",
    "phone": "+423 375 81 00",
    "ref": "Schulhaus / Feuerwehrdepot",
    "id": "node/9352008617"
  },
  "geometry": {
    "type": "Point",
    "coordinates": [
      9.5461863,
      47.1857513
    ]
  }
},
{
  "type": "Feature",
  "id": "node/10581038974",
  "properties": {
    "access": "yes",
    "defibrillator:location": "Müller AG, Westfassade Franz-Josef-Öhri-Strasse 32",
    "description": "Aussengehäuse in der Mitte der Westfassade",
    "emergency": "defibrillator",
    "emergency:phone": "144",
    "indoor": "no",
    "level": "0",
    "opening_hours": "24/7",
    "operator": "Müller AG Schreinerei und Innenausbau, Mauren",
    "phone": "+423 377 12 90",
    "source": "local_knowledge, defikarte.ch",
    "id": "node/10581038974"
  },
  "geometry": {
    "type": "Point",
    "coordinates": [
      9.5487982,
      47.2221003
    ]
  }
},
{
  "type": "Feature",
  "id": "node/10599307305",
  "properties": {
    "access": "yes",
    "defibrillator:location": "Parkhaus, Rhigass 5, 9487 Gamprin-Bendern",
    "description": "An Aussenfassade neben Gebäudeeingang",
    "emergency": "defibrillator",
    "emergency:phone": "144",
    "indoor": "no",
    "level": "0",
    "opening_hours": "24/7",
    "operator": "Gemeinde Gamprin",
    "phone": "+423 375 91 00",
    "id": "node/10599307305"
  },
  "geometry": {
    "type": "Point",
    "coordinates": [
      9.5027666,
      47.2063538
    ]
  }
},
{
  "type": "Feature",
  "id": "node/10720578105",
  "properties": {
    "access": "yes",
    "defibrillator:location": "ARA Bendern",
    "description": "Beim Velounterstand rechts Neben Haupttor",
    "emergency": "defibrillator",
    "emergency:phone": "144",
    "indoor": "no",
    "level": "0",
    "opening_hours": "24/7",
    "operator": "Abwasserzweckverband der Gemeinden Liechtensteins",
    "phone": "+423 377 17 44",
    "source": "local_knowledge, defikarte.ch",
    "id": "node/10720578105"
  },
  "geometry": {
    "type": "Point",
    "coordinates": [
      9.5017303,
      47.2139967
    ]
  }
},
{
  "type": "Feature",
  "id": "node/11296224569",
  "properties": {
    "defibrillator:location": "Schluchertreff Malbun, Öffentlicher Eingang",
    "emergency": "defibrillator",
    "emergency:phone": "144",
    "indoor": "no",
    "level": "0",
    "opening_hours": "24/7",
    "operator": "Gemeinde Triesenberg",
    "phone": "+423 792 26 61",
    "id": "node/11296224569"
  },
  "geometry": {
    "type": "Point",
    "coordinates": [
      9.6079587,
      47.1033471
    ]
  }
},
{
  "type": "Feature",
  "id": "node/11401087569",
  "properties": {
    "access": "yes",
    "defibrillator:location": "Sportzentrum Schellenberg ",
    "description": "Bei Haupteingang Sportzentrum ",
    "emergency": "defibrillator",
    "emergency:phone": "144",
    "indoor": "no",
    "opening_hours": "24/7",
    "operator": "Gemeinde Schellenberg ",
    "phone": "+423 399 20 40",
    "source": "local_knowledge, defikarte.ch",
    "id": "node/11401087569"
  },
  "geometry": {
    "type": "Point",
    "coordinates": [
      9.5511425,
      47.2344678
    ]
  }
},
{
  "type": "Feature",
  "id": "node/11409708469",
  "properties": {
    "access": "yes",
    "defibrillator:location": "Gemeindeverwaltung Haupteingang",
    "description": "Hinter Schiebetüre neben Lift / Alarmgesichert ",
    "emergency": "defibrillator",
    "emergency:phone": "144",
    "indoor": "no",
    "opening_hours": "24/7",
    "operator": "Gemeinde Eschen",
    "phone": "+423 794 90 20",
    "source": "local_knowledge, defikarte.ch",
    "id": "node/11409708469"
  },
  "geometry": {
    "type": "Point",
    "coordinates": [
      9.5235586,
      47.2124884
    ]
  }
},
{
  "type": "Feature",
  "id": "node/11409708470",
  "properties": {
    "access": "yes",
    "defibrillator:location": "Forstwerkhof Eschen-Nendeln",
    "description": "Direkt an der Fassade beim Eingang ",
    "emergency": "defibrillator",
    "emergency:phone": "144",
    "indoor": "no",
    "opening_hours": "24/7",
    "operator": "Gemeinde Eschen",
    "phone": "+423 794 90 20",
    "source": "local_knowledge, defikarte.ch",
    "id": "node/11409708470"
  },
  "geometry": {
    "type": "Point",
    "coordinates": [
      9.5483422,
      47.1963031
    ]
  }
},
{
  "type": "Feature",
  "id": "node/11409722070",
  "properties": {
    "access": "yes",
    "defibrillator:location": "Primarschule Nendeln",
    "description": "Beim Eingang zur Turnhalle",
    "emergency": "defibrillator",
    "emergency:phone": "144",
    "opening_hours": "24/7",
    "operator": "Gemeinde Eschen Nendeln",
    "phone": "+423 794 90 20",
    "source": "local_knowledge, defikarte.ch",
    "id": "node/11409722070"
  },
  "geometry": {
    "type": "Point",
    "coordinates": [
      9.546631,
      47.197459
    ]
  }
},
{
  "type": "Feature",
  "id": "node/11409822869",
  "properties": {
    "defibrillator:location": "Bushaltestelle Essanestrasse Presta",
    "description": "An Bushaltestelle Rückwand",
    "emergency": "defibrillator",
    "emergency:phone": "144",
    "indoor": "no",
    "opening_hours": "24/7",
    "operator": "Gemeinde Eschen",
    "phone": "+423 794 90 20",
    "id": "node/11409822869"
  },
  "geometry": {
    "type": "Point",
    "coordinates": [
      9.5277811,
      47.207529
    ]
  }
},
{
  "type": "Feature",
  "id": "node/11412517769",
  "properties": {
    "access": "yes",
    "defibrillator:location": "Gemeindeverwaltung Haupteingang",
    "description": "Von Poststrasse aus sichtbar ",
    "emergency": "defibrillator",
    "emergency:phone": "144",
    "indoor": "no",
    "opening_hours": "24/7",
    "operator": "Gemeinde Ruggell",
    "phone": "+423 377 49 20",
    "source": "local_knowledge, defikarte.ch",
    "id": "node/11412517769"
  },
  "geometry": {
    "type": "Point",
    "coordinates": [
      9.5248246,
      47.2407069
    ]
  }
},
{
  "type": "Feature",
  "id": "node/11412699570",
  "properties": {
    "access": "yes",
    "defibrillator:location": "Schulhaus Ebenholz Im Parkhaus ",
    "description": "ca. 30 Meter in die Einfahrt fahren rechts an der Wand ",
    "emergency": "defibrillator",
    "emergency:phone": "144",
    "indoor": "no",
    "opening_hours": "24/7",
    "operator": "Gemeinde Vaduz Florin Kofler ",
    "phone": "+423 793 78 29",
    "source": "local_knowledge, defikarte.ch",
    "id": "node/11412699570"
  },
  "geometry": {
    "type": "Point",
    "coordinates": [
      9.5145464,
      47.148473
    ]
  }
},
{
  "type": "Feature",
  "id": "node/11412741569",
  "properties": {
    "access": "yes",
    "defibrillator:location": "Kindergarten Schwefel Eingangsbereich ",
    "description": "Im gedeckten Eingangsbereich ",
    "emergency": "defibrillator",
    "emergency:phone": "144",
    "indoor": "no",
    "opening_hours": "24/7",
    "operator": "Gemeinde Vaduz ",
    "phone": "+423 265 06 06",
    "source": "local_knowledge, defikarte.ch",
    "id": "node/11412741569"
  },
  "geometry": {
    "type": "Point",
    "coordinates": [
      9.5244062,
      47.1292208
    ]
  }
},
{
  "type": "Feature",
  "id": "node/11412750269",
  "properties": {
    "access": "yes",
    "defibrillator:location": "Wuhrstrasse 7 Bürogebäude",
    "description": "Bei Haupteingang neben Türe",
    "emergency": "defibrillator",
    "emergency:phone": "144",
    "indoor": "no",
    "opening_hours": "24/7",
    "operator": "Gemeinde Vaduz",
    "phone": "+423 793 78 02",
    "source": "local_knowledge, defikarte.ch",
    "id": "node/11412750269"
  },
  "geometry": {
    "type": "Point",
    "coordinates": [
      9.51401,
      47.1353665
    ]
  }
},
{
  "type": "Feature",
  "id": "node/11413452269",
  "properties": {
    "access": "yes",
    "defibrillator:location": "Forstwerkhof Vaduz Letziweg",
    "description": "An der Hauswand ",
    "emergency": "defibrillator",
    "emergency:phone": "144",
    "indoor": "no",
    "opening_hours": "24/7",
    "operator": "Gemeinde Vaduz",
    "phone": "+423 793 78 02",
    "id": "node/11413452269"
  },
  "geometry": {
    "type": "Point",
    "coordinates": [
      9.5250811,
      47.148332
    ]
  }
},
{
  "type": "Feature",
  "id": "node/11413493469",
  "properties": {
    "access": "yes",
    "defibrillator:location": "Wertstoffsammelstelle Vaduz/Triesen",
    "emergency": "defibrillator",
    "emergency:phone": "144",
    "indoor": "no",
    "opening_hours": "24/7",
    "operator": "Gemeinde Vaduz",
    "phone": "+423 793 78 02",
    "id": "node/11413493469"
  },
  "geometry": {
    "type": "Point",
    "coordinates": [
      9.5224357,
      47.1242447
    ]
  }
},
{
  "type": "Feature",
  "id": "node/11414811071",
  "properties": {
    "access": "yes",
    "defibrillator:location": "Rheinparkstadion WC Damen neben Spielplatz",
    "description": "Ist witterungsgeschützt im inneren der Toilette",
    "emergency": "defibrillator",
    "emergency:phone": "144",
    "indoor": "no",
    "opening_hours": "24/7",
    "operator": "Gemeinde Vaduz",
    "phone": "+423 793 78 02",
    "id": "node/11414811071"
  },
  "geometry": {
    "type": "Point",
    "coordinates": [
      9.5106669,
      47.1415672
    ]
  }
},
{
  "type": "Feature",
  "id": "node/11414830169",
  "properties": {
    "access": "yes",
    "defibrillator:location": "Rheinparkstadion Trainingsgelände Platz 4 Nord",
    "description": "An Wand des Eingangs (nähe Schrebergärten)",
    "emergency": "defibrillator",
    "emergency:phone": "144",
    "indoor": "no",
    "opening_hours": "24/7",
    "operator": "Gemeinde Vaduz",
    "phone": "+423 793 78 02",
    "id": "node/11414830169"
  },
  "geometry": {
    "type": "Point",
    "coordinates": [
      9.5091949,
      47.1433146
    ]
  }
},
{
  "type": "Feature",
  "id": "node/11414830171",
  "properties": {
    "access": "yes",
    "defibrillator:location": "Baustelle neues Feuerwehr Depot",
    "description": "An Container aussen zugänglich ",
    "emergency": "defibrillator",
    "emergency:phone": "144",
    "indoor": "no",
    "opening_hours": "24/7",
    "operator": "Gemeinde Vaduz",
    "phone": "+423 793 78 02",
    "id": "node/11414830171"
  },
  "geometry": {
    "type": "Point",
    "coordinates": [
      9.5073745,
      47.1506029
    ]
  }
},
{
  "type": "Feature",
  "id": "node/11438903069",
  "properties": {
    "access": "yes",
    "defibrillator:location": "Haus der Familien beim LLB Bankomat",
    "description": "Im öffentlich zugänglichen Bankomatenraum neben dem Eingang der Drogerie Müller",
    "emergency": "defibrillator",
    "emergency:phone": "144",
    "indoor": "no",
    "opening_hours": "24/7",
    "operator": "Gemeinde Schaan Alex Steiger SiBe",
    "id": "node/11438903069"
  },
  "geometry": {
    "type": "Point",
    "coordinates": [
      9.5082954,
      47.1648445
    ]
  }
},
{
  "type": "Feature",
  "id": "node/11480627969",
  "properties": {
    "access": "yes",
    "defibrillator:location": "Clinicum Alpinum",
    "description": "Beim Eingang vom öffentlichen WC und dem Reastaurant Gaflei Stuba ",
    "emergency": "defibrillator",
    "emergency:phone": "144",
    "indoor": "no",
    "opening_hours": "24/7",
    "operator": "Clinicum",
    "phone": "+423 238 85 00",
    "id": "node/11480627969"
  },
  "geometry": {
    "type": "Point",
    "coordinates": [
      9.5444216,
      47.1429181
    ]
  }
},
{
  "type": "Feature",
  "id": "node/11531604931",
  "properties": {
    "access": "yes",
    "defibrillator:location": "Gemeindesaal,\nBeim Haupteingang links an der Wand",
    "emergency": "defibrillator",
    "indoor": "no",
    "opening_hours": "24/7",
    "operator": "Gemeinde Vaduz",
    "phone": "+423 793 78 02",
    "id": "node/11531604931"
  },
  "geometry": {
    "type": "Point",
    "coordinates": [
      9.5192402,
      47.1383792
    ]
  }
},
{
  "type": "Feature",
  "id": "node/11598105669",
  "properties": {
    "access": "yes",
    "defibrillator:location": "Eingang Hallenbad / Lift",
    "emergency": "defibrillator",
    "emergency:phone": "144",
    "indoor": "no",
    "opening_hours": "24/7",
    "operator": "Gemeinde Triesen",
    "phone": "+4233993692",
    "id": "node/11598105669"
  },
  "geometry": {
    "type": "Point",
    "coordinates": [
      9.5261586,
      47.1059712
    ]
  }
},
{
  "type": "Feature",
  "id": "node/11598729469",
  "properties": {
    "access": "yes",
    "defibrillator:location": "Nellengasse Primarschule Garage Hauswartung",
    "description": "Bei Garagentore an Aussenwand",
    "emergency": "defibrillator",
    "emergency:phone": "144",
    "indoor": "no",
    "opening_hours": "24/7",
    "operator": "Gemeinde Ruggell",
    "phone": "+423 377 49 20",
    "id": "node/11598729469"
  },
  "geometry": {
    "type": "Point",
    "coordinates": [
      9.5259957,
      47.2390233
    ]
  }
},
{
  "type": "Feature",
  "id": "node/11649491371",
  "properties": {
    "access": "yes",
    "defibrillator:location": "Tennishaus",
    "description": "Beim Eingang zur Tennishalle",
    "emergency": "defibrillator",
    "emergency:phone": "144",
    "indoor": "no",
    "opening_hours": "24/7",
    "operator": "Gemeinde Triesen / Tennisclub Triesen",
    "phone": "+423 792 36 42",
    "id": "node/11649491371"
  },
  "geometry": {
    "type": "Point",
    "coordinates": [
      9.5262425,
      47.0930718
    ]
  }
},
{
  "type": "Feature",
  "id": "node/11649514569",
  "properties": {
    "access": "yes",
    "defibrillator:location": "Campingplatz Mittagsspitze",
    "description": "Direkt bei Strasse sichtbar, Einfahrt Camping, Hausfassade",
    "emergency": "defibrillator",
    "emergency:phone": "144",
    "indoor": "no",
    "opening_hours": "24/7",
    "operator": "Gemeinde Triesen",
    "phone": "+423 792 36 42",
    "id": "node/11649514569"
  },
  "geometry": {
    "type": "Point",
    "coordinates": [
      9.5270424,
      47.0861519
    ]
  }
},
{
  "type": "Feature",
  "id": "node/11652564769",
  "properties": {
    "access": "yes",
    "defibrillator:location": "Eingang Gemeindeveraltung",
    "description": "Aussenwand bei Tiefgaragenzugang Treppe",
    "emergency": "defibrillator",
    "emergency:phone": "144",
    "indoor": "no",
    "opening_hours": "24/7",
    "operator": "Gemeinde Triesen",
    "phone": "+423 792 36 42",
    "id": "node/11652564769"
  },
  "geometry": {
    "type": "Point",
    "coordinates": [
      9.523884,
      47.1100085
    ]
  }
},
{
  "type": "Feature",
  "id": "node/11698448369",
  "properties": {
    "access": "yes",
    "defibrillator:location": "Pförtnerhaus, Schloss-Sicherheit",
    "description": "Beim Pförtner um Hilfe rufen. ",
    "emergency": "defibrillator",
    "emergency:phone": "144",
    "indoor": "no",
    "opening_hours": "24/7",
    "operator": "Schloss Vaduz",
    "id": "node/11698448369"
  },
  "geometry": {
    "type": "Point",
    "coordinates": [
      9.5246114,
      47.13898
    ]
  }
},
{
  "type": "Feature",
  "id": "node/11754925369",
  "properties": {
    "access": "yes",
    "defibrillator:location": "Feuerwehrdepot Garagentore",
    "emergency": "defibrillator",
    "emergency:phone": "144",
    "indoor": "no",
    "opening_hours": "24/7",
    "operator": "Gemeinde Ruggell",
    "phone": "+423 377 49 20",
    "id": "node/11754925369"
  },
  "geometry": {
    "type": "Point",
    "coordinates": [
      9.5230189,
      47.243565
    ]
  }
},
{
  "type": "Feature",
  "id": "node/11769835969",
  "properties": {
    "access": "no",
    "defibrillator:location": "Strassenkreuzung Lawenastrasse / Garnis",
    "description": "Direkt an der Strasse",
    "emergency": "defibrillator",
    "emergency:phone": "144",
    "indoor": "no",
    "level": "0",
    "opening_hours": "24/7",
    "operator": "Gemeinde Triesen",
    "phone": "+423 792 36 42",
    "id": "node/11769835969"
  },
  "geometry": {
    "type": "Point",
    "coordinates": [
      9.5358453,
      47.1002091
    ]
  }
},
{
  "type": "Feature",
  "id": "node/11769839169",
  "properties": {
    "access": "yes",
    "defibrillator:location": "Landesspital Eingang Empfang",
    "description": "Direkt beim Eingangsbereich nähe Empfang",
    "emergency": "defibrillator",
    "emergency:phone": "144",
    "indoor": "no",
    "level": "0",
    "opening_hours": "24/7",
    "operator": "LLS",
    "id": "node/11769839169"
  },
  "geometry": {
    "type": "Point",
    "coordinates": [
      9.5225524,
      47.1345827
    ]
  }
},
{
  "type": "Feature",
  "id": "node/11826866284",
  "properties": {
    "access": "yes",
    "defibrillator:location": "Oberweilerstrasse Verzweigung Geisszipfelstrasse",
    "description": "Privatgrundstück Hausfassade gut ersichtlich",
    "emergency": "defibrillator",
    "emergency:phone": "144",
    "indoor": "no",
    "opening_hours": "24/7",
    "operator": "Gemeinde Ruggell",
    "phone": "+423 377 49 20",
    "id": "node/11826866284"
  },
  "geometry": {
    "type": "Point",
    "coordinates": [
      9.524427,
      47.2353045
    ]
  }
},
{
  "type": "Feature",
  "id": "node/11849557271",
  "properties": {
    "access": "yes",
    "defibrillator:location": "Wangerberg / Sütigerwis Spielplatz",
    "description": "An WC Häuschen",
    "emergency": "defibrillator",
    "emergency:phone": "144",
    "indoor": "no",
    "opening_hours": "24/7",
    "operator": "Gemeinde Triesenberg GePo",
    "phone": "+423 792 26 61",
    "id": "node/11849557271"
  },
  "geometry": {
    "type": "Point",
    "coordinates": [
      9.54582,
      47.1086364
    ]
  }
},
{
  "type": "Feature",
  "id": "node/11849635098",
  "properties": {
    "access": "yes",
    "defibrillator:location": "Gut sichtbar an der Hauptstrasse beim Holzschopf;Direkt an Strasse / Eingang",
    "emergency": "defibrillator",
    "emergency:phone": "144",
    "indoor": "no",
    "level": "0",
    "opening_hours": "24/7",
    "operator": "Gemeinde Triesenberg",
    "phone": "+423 792 26 61",
    "id": "node/11849635098"
  },
  "geometry": {
    "type": "Point",
    "coordinates": [
      9.5493519,
      47.1185506
    ]
  }
},
{
  "type": "Feature",
  "id": "node/11849773998",
  "properties": {
    "access": "yes",
    "defibrillator:location": "Masescha, Öffentliches WC / Entsorgung",
    "description": "In der Nische zum Eingang der Toilette / Wartebereich Bushaltestelle",
    "emergency": "defibrillator",
    "emergency:phone": "144",
    "indoor": "no",
    "level": "0",
    "opening_hours": "24/7",
    "operator": "Gemeinde Triesenberg",
    "phone": "+423 792 26 61",
    "id": "node/11849773998"
  },
  "geometry": {
    "type": "Point",
    "coordinates": [
      9.542801,
      47.1325985
    ]
  }
},
{
  "type": "Feature",
  "id": "node/11850190269",
  "properties": {
    "access": "yes",
    "defibrillator:location": "Rizlina Öffentliches WC",
    "description": "Aussenwand Nord",
    "emergency": "defibrillator",
    "emergency:phone": "144",
    "indoor": "no",
    "level": "0",
    "opening_hours": "24/7",
    "operator": "Gemeinde Triesenberg",
    "phone": "+423 792 26 61",
    "id": "node/11850190269"
  },
  "geometry": {
    "type": "Point",
    "coordinates": [
      9.5533503,
      47.1199626
    ]
  }
},
{
  "type": "Feature",
  "id": "node/11850537284",
  "properties": {
    "access": "yes",
    "defibrillator:location": "Rotenboden, Saminaüberbauung",
    "description": "An der Nordfassade direkt an der Strasse",
    "emergency": "defibrillator",
    "emergency:phone": "144",
    "indoor": "no",
    "level": "0",
    "opening_hours": "24/7",
    "operator": "Gemeinde Triesenberg",
    "phone": "+423 792 26 61",
    "id": "node/11850537284"
  },
  "geometry": {
    "type": "Point",
    "coordinates": [
      9.5389982,
      47.1273843
    ]
  }
},
{
  "type": "Feature",
  "id": "node/11886871869",
  "properties": {
    "access": "yes",
    "defibrillator:location": "Trafostation LKW Steinortstrasse",
    "description": "Direkt neben der Strasse ersichtlich",
    "emergency": "defibrillator",
    "emergency:phone": "144",
    "indoor": "no",
    "level": "0",
    "opening_hours": "24/7",
    "operator": "Gemeinde Triesenberg",
    "phone": "+423 792 26 61",
    "id": "node/11886871869"
  },
  "geometry": {
    "type": "Point",
    "coordinates": [
      9.5503341,
      47.1133862
    ]
  }
},
{
  "type": "Feature",
  "id": "node/11886879169",
  "properties": {
    "access": "yes",
    "defibrillator:location": "Steg Zollhaus Bushaltestelle",
    "description": "Bei den Postfächern / Bushaltestelle an der Wand",
    "emergency": "defibrillator",
    "emergency:phone": "144",
    "indoor": "no",
    "level": "0",
    "opening_hours": "24/7",
    "operator": "Gemeinde Triesenberg",
    "phone": "+423 792 26 61",
    "id": "node/11886879169"
  },
  "geometry": {
    "type": "Point",
    "coordinates": [
      9.5769323,
      47.1126858
    ]
  }
},
{
  "type": "Feature",
  "id": "node/11916053469",
  "properties": {
    "access": "yes",
    "defibrillator:location": "Kirche Nendeln, öffentliche Toilette",
    "description": "Öffentliche Toilette",
    "emergency": "defibrillator",
    "emergency:phone": "144",
    "indoor": "no",
    "level": "0",
    "opening_hours": "24/7",
    "operator": "Gemeinde Eschen-Nendeln",
    "phone": "+4237949020",
    "id": "node/11916053469"
  },
  "geometry": {
    "type": "Point",
    "coordinates": [
      9.5447861,
      47.1995431
    ]
  }
},
{
  "type": "Feature",
  "id": "node/12011868469",
  "properties": {
    "access": "yes",
    "defibrillator:location": "Liechtenstein Wärme",
    "description": "Beim Haupteingang an der Aussenwand",
    "emergency": "defibrillator",
    "emergency:phone": "144",
    "indoor": "no",
    "level": "0",
    "opening_hours": "24/7",
    "operator": "Wärme.li",
    "phone": "+4232361555",
    "id": "node/12011868469"
  },
  "geometry": {
    "type": "Point",
    "coordinates": [
      9.5099569,
      47.1737575
    ]
  }
},
{
  "type": "Feature",
  "id": "node/12069964269",
  "properties": {
    "access": "yes",
    "defibrillator:location": "Kinderspielplatz Auring",
    "description": "Am Toilettengebäude",
    "emergency": "defibrillator",
    "emergency:phone": "144",
    "indoor": "no",
    "level": "0",
    "opening_hours": "24/7",
    "operator": "Gemeinde Vaduz",
    "phone": "+4237937802",
    "id": "node/12069964269"
  },
  "geometry": {
    "type": "Point",
    "coordinates": [
      9.5179357,
      47.1354929
    ]
  }
},
{
  "type": "Feature",
  "id": "node/12071244969",
  "properties": {
    "access": "yes",
    "check_date": "2025-02-22",
    "defibrillator:location": "Rheinparkstadion Kassahaus Parkplätze",
    "description": "Am Kassahaus Fassade",
    "emergency": "defibrillator",
    "emergency:phone": "144",
    "indoor": "no",
    "level": "0",
    "opening_hours": "24/7",
    "operator": "Gemeinde Vaduz",
    "phone": "+423 793 78 02",
    "id": "node/12071244969"
  },
  "geometry": {
    "type": "Point",
    "coordinates": [
      9.5106807,
      47.1394554
    ]
  }
},
{
  "type": "Feature",
  "id": "node/12122290501",
  "properties": {
    "defibrillator:location": "Spielplatz Waldhotel",
    "description": "Bei den öffentlichen Toiletten",
    "emergency": "defibrillator",
    "emergency:phone": "144",
    "indoor": "no",
    "level": "0",
    "opening_hours": "24/7",
    "operator": "Gemeinde Vaduz",
    "phone": "+4237937802",
    "id": "node/12122290501"
  },
  "geometry": {
    "type": "Point",
    "coordinates": [
      9.5212921,
      47.1506679
    ]
  }
},
{
  "type": "Feature",
  "id": "node/12157841501",
  "properties": {
    "access": "yes",
    "defibrillator:location": "Kleinsteg Parkplätze Alpwerksgebäude",
    "description": "Öffentliche Toiletten, WC Anlage",
    "emergency": "defibrillator",
    "emergency:phone": "144",
    "indoor": "no",
    "level": "0",
    "opening_hours": "24/7",
    "operator": "Gemeinde Triesenberg",
    "phone": "+4237922661",
    "id": "node/12157841501"
  },
  "geometry": {
    "type": "Point",
    "coordinates": [
      9.5770049,
      47.1079421
    ]
  }
},
{
  "type": "Feature",
  "id": "node/12214050201",
  "properties": {
    "defibrillator:location": "Tennishaus",
    "description": "beim Haupteingang",
    "emergency": "defibrillator",
    "emergency:phone": "144",
    "indoor": "no",
    "level": "0",
    "opening_hours": "24/7",
    "operator": "Gemeinde Mauren",
    "phone": "+4233771040",
    "id": "node/12214050201"
  },
  "geometry": {
    "type": "Point",
    "coordinates": [
      9.5400827,
      47.206865
    ]
  }
},
{
  "type": "Feature",
  "id": "node/12214153201",
  "properties": {
    "defibrillator:location": "Bancomat Mauren Post",
    "description": "beim Bancomat",
    "emergency": "defibrillator",
    "emergency:phone": "144",
    "indoor": "no",
    "level": "0",
    "opening_hours": "24/7",
    "operator": "Gemeinde Mauren",
    "phone": "+4233771040",
    "id": "node/12214153201"
  },
  "geometry": {
    "type": "Point",
    "coordinates": [
      9.5421458,
      47.2186832
    ]
  }
},
{
  "type": "Feature",
  "id": "node/12214268503",
  "properties": {
    "defibrillator:location": "Resch Schule Nordseite",
    "description": "unter den Parkplätzen",
    "emergency": "defibrillator",
    "emergency:phone": "144",
    "indoor": "no",
    "level": "0",
    "opening_hours": "24/7",
    "operator": "Gemeinde Schaan",
    "phone": "+4232377240",
    "id": "node/12214268503"
  },
  "geometry": {
    "type": "Point",
    "coordinates": [
      9.5160524,
      47.1664923
    ]
  }
},
{
  "type": "Feature",
  "id": "node/12231717901",
  "properties": {
    "defibrillator:location": "Im Pardiel 71 an der Strasse",
    "description": "Kreuzung Pardiel / Wiesengass",
    "emergency": "defibrillator",
    "emergency:phone": "144",
    "indoor": "no",
    "level": "0",
    "opening_hours": "24/7",
    "operator": "Gemeinde Schaan",
    "phone": "+4237947244",
    "id": "node/12231717901"
  },
  "geometry": {
    "type": "Point",
    "coordinates": [
      9.5053262,
      47.1641064
    ]
  }
},
{
  "type": "Feature",
  "id": "node/12278966603",
  "properties": {
    "defibrillator:location": "Architektur Hasler Landstr. 35",
    "description": "Rechts beim Haupteingang",
    "emergency": "defibrillator",
    "emergency:phone": "144",
    "indoor": "no",
    "level": "0",
    "opening_hours": "24/7",
    "operator": "Gemeinde Vaduz",
    "phone": "+4237937802",
    "id": "node/12278966603"
  },
  "geometry": {
    "type": "Point",
    "coordinates": [
      9.5154055,
      47.1447383
    ]
  }
},
{
  "type": "Feature",
  "id": "node/12507267901",
  "properties": {
    "access": "yes",
    "defibrillator:location": "Saxgass 8a Rückhaltebecken",
    "description": "Sichtbar von der Strasse am Eingang",
    "emergency": "defibrillator",
    "emergency:phone": "144",
    "indoor": "no",
    "level": "0",
    "opening_hours": "24/7",
    "operator": "Gemeinde Schaan",
    "phone": "+4232377200",
    "id": "node/12507267901"
  },
  "geometry": {
    "type": "Point",
    "coordinates": [
      9.5108604,
      47.1585846
    ]
  }
},
{
  "type": "Feature",
  "id": "node/12508973201",
  "properties": {
    "access": "yes",
    "defibrillator:location": "Schreinerei Noldi Frommelt AG, rotes Gebäude, Fassade Nordost",
    "description": "immer verfügbar",
    "emergency": "defibrillator",
    "emergency:phone": "144",
    "indoor": "no",
    "level": "0",
    "opening_hours": "24/7",
    "operator": "Schreinerei Noldi Frommelt",
    "operator:type": "private",
    "phone": "+41788007803",
    "id": "node/12508973201"
  },
  "geometry": {
    "type": "Point",
    "coordinates": [
      9.5072697,
      47.1792589
    ]
  }
},
{
  "type": "Feature",
  "id": "node/12574311801",
  "properties": {
    "access": "permissive",
    "defibrillator:location": "Argus Sicherheitsdienst AG",
    "description": "Klingeln und den AED anfordern, dieser wird umgehend gebracht..",
    "emergency": "defibrillator",
    "emergency:phone": "144",
    "indoor": "yes",
    "level": "2",
    "opening_hours": "24/7",
    "operator": "Argus Sicherheitsdienst",
    "phone": "+4233774040",
    "id": "node/12574311801"
  },
  "geometry": {
    "type": "Point",
    "coordinates": [
      9.5338979,
      47.2074649
    ]
  }
},
{
  "type": "Feature",
  "id": "node/12578826001",
  "properties": {
    "access": "yes",
    "defibrillator:location": "Primarschule Eschen",
    "description": "Simsgasse unterhalb des Gebäudes beim Abwartseingang",
    "emergency": "defibrillator",
    "emergency:phone": "144",
    "indoor": "no",
    "level": "-1",
    "opening_hours": "24/7",
    "operator": "Gemeinde Eschen",
    "phone": "+423 794 90 20",
    "id": "node/12578826001"
  },
  "geometry": {
    "type": "Point",
    "coordinates": [
      9.5207233,
      47.2126662
    ]
  }
},
{
  "type": "Feature",
  "id": "node/12625392302",
  "properties": {
    "access": "yes",
    "defibrillator:location": "Mehrzweckgebäude Vereinshaus",
    "description": "Beim Eingang Skiclub",
    "emergency": "defibrillator",
    "emergency:phone": "144",
    "indoor": "no",
    "level": "0",
    "opening_hours": "24/7",
    "operator": "Gemeinde Triesen",
    "phone": "+423 399 36 36",
    "id": "node/12625392302"
  },
  "geometry": {
    "type": "Point",
    "coordinates": [
      9.5245702,
      47.1019264
    ]
  }
},
{
  "type": "Feature",
  "id": "node/12655522201",
  "properties": {
    "access": "yes",
    "defibrillator:location": "Wohnen im Alter, Elgagass 34",
    "description": "Eingang Südseite",
    "emergency": "defibrillator",
    "emergency:phone": "144",
    "indoor": "no",
    "level": "0",
    "opening_hours": "24/7",
    "operator": "Gemeinde Balzers",
    "phone": "+41796973326",
    "id": "node/12655522201"
  },
  "geometry": {
    "type": "Point",
    "coordinates": [
      9.4989736,
      47.0648791
    ]
  }
},
{
  "type": "Feature",
  "id": "node/12655690901",
  "properties": {
    "access": "yes",
    "defibrillator:location": "Familienzentrum Heiligwies 24",
    "description": "Eingang Kindergarten",
    "emergency": "defibrillator",
    "emergency:phone": "144",
    "indoor": "no",
    "level": "0",
    "opening_hours": "24/7",
    "operator": "Gemeinde Balzers",
    "phone": "+41796973326",
    "id": "node/12655690901"
  },
  "geometry": {
    "type": "Point",
    "coordinates": [
      9.5085058,
      47.0694972
    ]
  }
},
{
  "type": "Feature",
  "id": "node/12684800402",
  "properties": {
    "access": "yes",
    "defibrillator:location": "Max Heidegger Autogarage Messinastr. 1",
    "description": "Direkt an der Industriestrasse ersichtlich",
    "emergency": "defibrillator",
    "emergency:phone": "144",
    "indoor": "no",
    "level": "0",
    "opening_hours": "24/7",
    "operator": "Gemeinde Triesen",
    "phone": "+423 792 36 42",
    "id": "node/12684800402"
  },
  "geometry": {
    "type": "Point",
    "coordinates": [
      9.5195197,
      47.1194191
    ]
  }
},
{
  "type": "Feature",
  "id": "node/12687191001",
  "properties": {
    "access": "yes",
    "defibrillator:location": "Trafostation LKW Wingerta",
    "description": "Direkt an der Strasse Wigerta",
    "emergency": "defibrillator",
    "emergency:phone": "144",
    "indoor": "no",
    "level": "0",
    "opening_hours": "24/7",
    "operator": "Gemeinde Balzers",
    "phone": "+41796973326",
    "id": "node/12687191001"
  },
  "geometry": {
    "type": "Point",
    "coordinates": [
      9.5120978,
      47.063032
    ]
  }
},
{
  "type": "Feature",
  "id": "node/12687254001",
  "properties": {
    "access": "yes",
    "defibrillator:location": "Trafostation LKW Mariahilf",
    "description": "Beim Parkplatz, hinter dem Kindergarten Mariahilf",
    "emergency": "defibrillator",
    "emergency:phone": "144",
    "indoor": "no",
    "level": "0",
    "opening_hours": "24/7",
    "operator": "Gemeinde Balzers",
    "phone": "+41796973326",
    "id": "node/12687254001"
  },
  "geometry": {
    "type": "Point",
    "coordinates": [
      9.4891531,
      47.0612383
    ]
  }
},
{
  "type": "Feature",
  "id": "node/12754309901",
  "properties": {
    "access": "yes",
    "defibrillator:location": "Vogelparadies",
    "description": "Bei den Veloständern",
    "emergency": "defibrillator",
    "emergency:phone": "144",
    "indoor": "no",
    "level": "0",
    "opening_hours": "24/7",
    "operator": "Gemeinde Schaan",
    "phone": "+4233771040",
    "id": "node/12754309901"
  },
  "geometry": {
    "type": "Point",
    "coordinates": [
      9.5502472,
      47.2155792
    ]
  }
}
]
}
